CUTE-1 (CO-55)          
1 27844U 03031E   26066.59677279  .00000487  00000+0  23007-3 0  9997
2 27844  98.6780  76.4215 0010613 117.8292 242.3964 14.24264289177211
CUBESAT XI-IV (CO-57)   
1 27848U 03031J   26066.46430388  .00000412  00000+0  20014-3 0  9998
2 27848  98.6810  76.0849 0010291 134.6270 225.5750 14.23559596176901
CUBESAT XI-V            
1 28895U 05043F   26066.40518694  .00003082  00000+0  49497-3 0  9999
2 28895  98.2827 219.9857 0014610 164.5831 195.5824 14.72309078 86774
CUTE-1.7+APD II (CO-65) 
1 32785U 08021C   26066.59070164  .00009498  00000+0  61490-3 0  9990
2 32785  97.8210  46.0246 0009937  26.7081 333.4656 15.08337924969879
CANX-2                  
1 32790U 08021H   26066.51274858  .00007127  00000+0  50900-3 0  9995
2 32790  97.8566  44.4281 0011718  36.7636 323.4391 15.04768768969513
SEEDS II (CO-66)        
1 32791U 08021J   26066.49972067  .00030386  00000+0  10796-2 0  9991
2 32791  97.7523  59.8387 0001763   7.0409 353.0854 15.28968125971736
SWISSCUBE               
1 35932U 09051B   26066.62995467  .00001813  00000+0  36923-3 0  9993
2 35932  98.4098 332.7362 0006934 158.7372 201.4118 14.62253623874317
BEESAT-1                
1 35933U 09051C   26066.31382181  .00001534  00000+0  31893-3 0  9994
2 35933  98.4030 332.2595 0005150 170.5890 189.5407 14.61527288874309
ITUPSAT1                
1 35935U 09051E   26066.28451810  .00001414  00000+0  30291-3 0  9996
2 35935  98.4118 331.5269 0007100 185.7146 174.3974 14.60262677873865
TISAT 1                 
1 36799U 10035E   26066.07130428  .00026045  00000+0  96971-3 0  9999
2 36799  98.0650   3.9483 0000923 164.7588 195.3678 15.27464842852090
AEROCUBE 4.5A           
1 38767U 12048K   26066.29042726  .00126620  00000+0  13910-2 0  9990
2 38767  64.6386  28.4109 0041260 212.6378 147.2217 15.61489796356613
STRAND-1                
1 39090U 13009E   26066.47560921  .00000542  00000+0  19693-3 0  9999
2 39090  98.3885 249.2224 0008883 168.1704 191.9693 14.37092860682456
BRITE-AUSTRIA           
1 39091U 13009F   26066.44529650  .00000366  00000+0  13905-3 0  9995
2 39091  98.3952 248.4089 0010234 177.7131 182.4104 14.36494872682444
NEE-01 PEGASO           
1 39151U 13018B   26066.35460350  .00005085  00000+0  49318-3 0  9993
2 39151  98.1051 207.2749 0013633 136.3475 223.8825 14.93074473695508
POPACS 2                
1 39269U 13055E   26066.55902165  .00033198  00000+0  57868-3 0  9996
2 39269  80.9892 260.2599 0431075 159.6546 202.2456 14.87676575648089
POPACS 3                
1 39270U 13055F   26066.47806594  .00020534  00000+0  49488-3 0  9997
2 39270  81.0054 339.3087 0560670  19.4265 342.7384 14.53885707623768
