[{"OBJECT_NAME":"CUTE-1 (CO-55)","OBJECT_ID":"2003-031E","EPOCH":"2026-03-07T14:19:21.169056","MEAN_MOTION":14.24264289,"ECCENTRICITY":0.00106132,"INCLINATION":98.678,"RA_OF_ASC_NODE":76.4215,"ARG_OF_PERICENTER":117.8292,"MEAN_ANOMALY":242.3964,"EPHEMERIS_TYPE":0,"CLASSIFICATION_TYPE":"U","NORAD_CAT_ID":27844,"ELEMENT_SET_NO":999,"REV_AT_EPOCH":17721,"BSTAR":0.00023007097,"MEAN_MOTION_DOT":4.87e-6,"MEAN_MOTION_DDOT":0},{"OBJECT_NAME":"CUBESAT XI-IV (CO-57)","OBJECT_ID":"2003-031J","EPOCH":"2026-03-07T11:08:35.855232","MEAN_MOTION":14.23559596,"ECCENTRICITY":0.00102913,"INCLINATION":98.681,"RA_OF_ASC_NODE":76.0849,"ARG_OF_PERICENTER":134.627,"MEAN_ANOMALY":225.575,"EPHEMERIS_TYPE":0,"CLASSIFICATION_TYPE":"U","NORAD_CAT_ID":27848,"ELEMENT_SET_NO":999,"REV_AT_EPOCH":17690,"BSTAR":0.00020013879,"MEAN_MOTION_DOT":4.12e-6,"MEAN_MOTION_DDOT":0},{"OBJECT_NAME":"CUBESAT XI-V","OBJECT_ID":"2005-043F","EPOCH":"2026-03-07T09:43:28.151616","MEAN_MOTION":14.72309078,"ECCENTRICITY":0.00146106,"INCLINATION":98.2827,"RA_OF_ASC_NODE":219.9857,"ARG_OF_PERICENTER":164.5831,"MEAN_ANOMALY":195.5824,"EPHEMERIS_TYPE":0,"CLASSIFICATION_TYPE":"U","NORAD_CAT_ID":28895,"ELEMENT_SET_NO":999,"REV_AT_EPOCH":8677,"BSTAR":0.00049497181,"MEAN_MOTION_DOT":3.082e-5,"MEAN_MOTION_DDOT":0},{"OBJECT_NAME":"CUTE-1.7+APD II (CO-65)","OBJECT_ID":"2008-021C","EPOCH":"2026-03-07T14:10:36.621696","MEAN_MOTION":15.08337924,"ECCENTRICITY":0.00099372,"INCLINATION":97.821,"RA_OF_ASC_NODE":46.0246,"ARG_OF_PERICENTER":26.7081,"MEAN_ANOMALY":333.4656,"EPHEMERIS_TYPE":0,"CLASSIFICATION_TYPE":"U","NORAD_CAT_ID":32785,"ELEMENT_SET_NO":999,"REV_AT_EPOCH":96987,"BSTAR":0.0006149022,"MEAN_MOTION_DOT":9.498e-5,"MEAN_MOTION_DDOT":0},{"OBJECT_NAME":"CANX-2","OBJECT_ID":"2008-021H","EPOCH":"2026-03-07T12:18:21.477312","MEAN_MOTION":15.04768768,"ECCENTRICITY":0.00117183,"INCLINATION":97.8566,"RA_OF_ASC_NODE":44.4281,"ARG_OF_PERICENTER":36.7636,"MEAN_ANOMALY":323.4391,"EPHEMERIS_TYPE":0,"CLASSIFICATION_TYPE":"U","NORAD_CAT_ID":32790,"ELEMENT_SET_NO":999,"REV_AT_EPOCH":96951,"BSTAR":0.00050900093,"MEAN_MOTION_DOT":7.127e-5,"MEAN_MOTION_DDOT":0},{"OBJECT_NAME":"SEEDS II (CO-66)","OBJECT_ID":"2008-021J","EPOCH":"2026-03-07T11:59:35.865888","MEAN_MOTION":15.28968125,"ECCENTRICITY":0.00017632,"INCLINATION":97.7523,"RA_OF_ASC_NODE":59.8387,"ARG_OF_PERICENTER":7.0409,"MEAN_ANOMALY":353.0854,"EPHEMERIS_TYPE":0,"CLASSIFICATION_TYPE":"U","NORAD_CAT_ID":32791,"ELEMENT_SET_NO":999,"REV_AT_EPOCH":97173,"BSTAR":0.001079585,"MEAN_MOTION_DOT":0.00030386,"MEAN_MOTION_DDOT":0},{"OBJECT_NAME":"SWISSCUBE","OBJECT_ID":"2009-051B","EPOCH":"2026-03-07T15:07:08.083488","MEAN_MOTION":14.62253623,"ECCENTRICITY":0.00069347,"INCLINATION":98.4098,"RA_OF_ASC_NODE":332.7362,"ARG_OF_PERICENTER":158.7372,"MEAN_ANOMALY":201.4118,"EPHEMERIS_TYPE":0,"CLASSIFICATION_TYPE":"U","NORAD_CAT_ID":35932,"ELEMENT_SET_NO":999,"REV_AT_EPOCH":87431,"BSTAR":0.00036923019,"MEAN_MOTION_DOT":1.813e-5,"MEAN_MOTION_DDOT":0},{"OBJECT_NAME":"BEESAT-1","OBJECT_ID":"2009-051C","EPOCH":"2026-03-07T07:31:54.204384","MEAN_MOTION":14.61527288,"ECCENTRICITY":0.000515,"INCLINATION":98.403,"RA_OF_ASC_NODE":332.2595,"ARG_OF_PERICENTER":170.589,"MEAN_ANOMALY":189.5407,"EPHEMERIS_TYPE":0,"CLASSIFICATION_TYPE":"U","NORAD_CAT_ID":35933,"ELEMENT_SET_NO":999,"REV_AT_EPOCH":87430,"BSTAR":0.00031893,"MEAN_MOTION_DOT":1.534e-5,"MEAN_MOTION_DDOT":0},{"OBJECT_NAME":"ITUPSAT1","OBJECT_ID":"2009-051E","EPOCH":"2026-03-07T06:49:42.363840","MEAN_MOTION":14.60262677,"ECCENTRICITY":0.00071,"INCLINATION":98.4118,"RA_OF_ASC_NODE":331.5269,"ARG_OF_PERICENTER":185.7146,"MEAN_ANOMALY":174.3974,"EPHEMERIS_TYPE":0,"CLASSIFICATION_TYPE":"U","NORAD_CAT_ID":35935,"ELEMENT_SET_NO":999,"REV_AT_EPOCH":87386,"BSTAR":0.00030291,"MEAN_MOTION_DOT":1.414e-5,"MEAN_MOTION_DDOT":0},{"OBJECT_NAME":"TISAT 1","OBJECT_ID":"2010-035E","EPOCH":"2026-03-07T01:42:40.689792","MEAN_MOTION":15.27464842,"ECCENTRICITY":9.238e-5,"INCLINATION":98.065,"RA_OF_ASC_NODE":3.9483,"ARG_OF_PERICENTER":164.7588,"MEAN_ANOMALY":195.3678,"EPHEMERIS_TYPE":0,"CLASSIFICATION_TYPE":"U","NORAD_CAT_ID":36799,"ELEMENT_SET_NO":999,"REV_AT_EPOCH":85209,"BSTAR":0.00096971432,"MEAN_MOTION_DOT":0.00026045,"MEAN_MOTION_DDOT":0},{"OBJECT_NAME":"AEROCUBE 4.5A","OBJECT_ID":"2012-048K","EPOCH":"2026-03-07T06:58:12.915264","MEAN_MOTION":15.61489796,"ECCENTRICITY":0.004126,"INCLINATION":64.6386,"RA_OF_ASC_NODE":28.4109,"ARG_OF_PERICENTER":212.6378,"MEAN_ANOMALY":147.2217,"EPHEMERIS_TYPE":0,"CLASSIFICATION_TYPE":"U","NORAD_CAT_ID":38767,"ELEMENT_SET_NO":999,"REV_AT_EPOCH":35661,"BSTAR":0.001391,"MEAN_MOTION_DOT":0.0012662,"MEAN_MOTION_DDOT":0},{"OBJECT_NAME":"STRAND-1","OBJECT_ID":"2013-009E","EPOCH":"2026-03-07T11:24:52.635744","MEAN_MOTION":14.3709286,"ECCENTRICITY":0.00088834,"INCLINATION":98.3885,"RA_OF_ASC_NODE":249.2224,"ARG_OF_PERICENTER":168.1704,"MEAN_ANOMALY":191.9693,"EPHEMERIS_TYPE":0,"CLASSIFICATION_TYPE":"U","NORAD_CAT_ID":39090,"ELEMENT_SET_NO":999,"REV_AT_EPOCH":68245,"BSTAR":0.00019692931,"MEAN_MOTION_DOT":5.42e-6,"MEAN_MOTION_DDOT":0},{"OBJECT_NAME":"BRITE-AUSTRIA","OBJECT_ID":"2013-009F","EPOCH":"2026-03-07T10:41:13.617600","MEAN_MOTION":14.36494872,"ECCENTRICITY":0.00102341,"INCLINATION":98.3952,"RA_OF_ASC_NODE":248.4089,"ARG_OF_PERICENTER":177.7131,"MEAN_ANOMALY":182.4104,"EPHEMERIS_TYPE":0,"CLASSIFICATION_TYPE":"U","NORAD_CAT_ID":39091,"ELEMENT_SET_NO":999,"REV_AT_EPOCH":68244,"BSTAR":0.0001390518,"MEAN_MOTION_DOT":3.66e-6,"MEAN_MOTION_DDOT":0},{"OBJECT_NAME":"NEE-01 PEGASO","OBJECT_ID":"2013-018B","EPOCH":"2026-03-07T08:30:37.742400","MEAN_MOTION":14.93074473,"ECCENTRICITY":0.00136335,"INCLINATION":98.1051,"RA_OF_ASC_NODE":207.2749,"ARG_OF_PERICENTER":136.3475,"MEAN_ANOMALY":223.8825,"EPHEMERIS_TYPE":0,"CLASSIFICATION_TYPE":"U","NORAD_CAT_ID":39151,"ELEMENT_SET_NO":999,"REV_AT_EPOCH":69550,"BSTAR":0.00049318145,"MEAN_MOTION_DOT":5.085e-5,"MEAN_MOTION_DDOT":0},{"OBJECT_NAME":"POPACS 2","OBJECT_ID":"2013-055E","EPOCH":"2026-03-07T13:24:59.470560","MEAN_MOTION":14.87676575,"ECCENTRICITY":0.0431075,"INCLINATION":80.9892,"RA_OF_ASC_NODE":260.2599,"ARG_OF_PERICENTER":159.6546,"MEAN_ANOMALY":202.2456,"EPHEMERIS_TYPE":0,"CLASSIFICATION_TYPE":"U","NORAD_CAT_ID":39269,"ELEMENT_SET_NO":999,"REV_AT_EPOCH":64808,"BSTAR":0.00057867809,"MEAN_MOTION_DOT":0.00033198,"MEAN_MOTION_DDOT":0},{"OBJECT_NAME":"POPACS 3","OBJECT_ID":"2013-055F","EPOCH":"2026-03-07T11:28:24.897216","MEAN_MOTION":14.53885707,"ECCENTRICITY":0.05606707,"INCLINATION":81.0054,"RA_OF_ASC_NODE":339.3087,"ARG_OF_PERICENTER":19.4265,"MEAN_ANOMALY":342.7384,"EPHEMERIS_TYPE":0,"CLASSIFICATION_TYPE":"U","NORAD_CAT_ID":39270,"ELEMENT_SET_NO":999,"REV_AT_EPOCH":62376,"BSTAR":0.00049488479,"MEAN_MOTION_DOT":0.00020534,"MEAN_MOTION_DDOT":0}]
